[{"OBJECT_NAME":"STARLINK-6270","OBJECT_ID":"2023-061AZ","EPOCH":"2026-03-09T07:37:22.125216","MEAN_MOTION":15.02532108,"ECCENTRICITY":0.00013254,"INCLINATION":43.0045,"RA_OF_ASC_NODE":173.9129,"ARG_OF_PERICENTER":267.6382,"MEAN_ANOMALY":92.4309,"EPHEMERIS_TYPE":0,"CLASSIFICATION_TYPE":"U","NORAD_CAT_ID":56421,"ELEMENT_SET_NO":999,"REV_AT_EPOCH":15699,"BSTAR":-1.3581322e-5,"MEAN_MOTION_DOT":-3.87e-6,"MEAN_MOTION_DDOT":0},{"OBJECT_NAME":"CZ-4C DEB","OBJECT_ID":"2010-038D","EPOCH":"2026-03-09T01:12:27.235872","MEAN_MOTION":14.75804828,"ECCENTRICITY":0.01202328,"INCLINATION":97.9532,"RA_OF_ASC_NODE":164.702,"ARG_OF_PERICENTER":229.9203,"MEAN_ANOMALY":129.1417,"EPHEMERIS_TYPE":0,"CLASSIFICATION_TYPE":"U","NORAD_CAT_ID":37568,"ELEMENT_SET_NO":999,"REV_AT_EPOCH":82101,"BSTAR":0.0014631198,"MEAN_MOTION_DOT":0.00011242,"MEAN_MOTION_DDOT":0}]
